EPOCH,INCLINATION,ECCENTRICITY,BSTAR,TLE_LINE1,TLE_LINE2
2026-02-21T16:55:15.399840,97.6026,0.00008900,0.00025528000000,1 64157U 25112M   26052.70503935  .00003625  00000-0  25528-3 0  9992,2 64157  97.6026 105.7762 0000890 105.8734 254.2591 15.05655134 40904
2026-02-21T13:43:51.384000,97.6027,0.00007920,0.00032510754000,1 64157U 25112M   26052.57212250  .00004634  00000-0  32511-3 0  9995,2 64157  97.6027 105.6446 0000792  97.9604 262.1713 15.05656981 40883
2026-02-21T02:33:57.462912,97.6026,0.00010093,0.00031945250000,1 64157U 25112M   26052.10691508  .00004552  00000-0  31945-3 0  9990,2 64157  97.6026 105.1866 0001009 103.2681 256.8658 15.05656359 40811
2026-02-21T02:33:57.462048,97.6026,0.00010090,0.00031945000000,1 64157U 25112M   26052.10691507  .00004552  00000-0  31945-3 0  9999,2 64157  97.6026 105.1866 0001009 103.2681 256.8658 15.05656359 40811
2026-02-20T16:59:45.499200,97.6025,0.00009680,0.00022380000000,1 64157U 25112M   26051.70816550  .00003170  00000-0  22380-3 0  9999,2 64157  97.6025 104.7932 0000968 106.9148 253.2185 15.05653331 40756
2026-02-20T16:59:45.499200,97.6025,0.00009676,0.00022379810000,1 64157U 25112M   26051.70816550  .00003170  00000-0  22380-3 0  9999,2 64157  97.6025 104.7932 0000968 106.9148 253.2185 15.05653331 40756
2026-02-20T02:38:27.551904,97.6025,0.00010065,0.00012709779000,1 64157U 25112M   26051.11004111  .00001774  00000-0  12710-3 0  9990,2 64157  97.6025 104.2029 0001007  88.3398 271.7944 15.05651244 40662
2026-02-20T02:38:27.551040,97.6025,0.00010070,0.00012710000000,1 64157U 25112M   26051.11004110  .00001774  00000-0  12710-3 0  9999,2 64157  97.6025 104.2029 0001007  88.3398 271.7944 15.05651244 40662
